CCSDS_OMM_VERS = 2.0
CREATION_DATE  = 
ORIGINATOR     = 

OBJECT_NAME    = IDEFIX & ARIANE 42P R/B
OBJECT_ID      = 2002-021B
CENTER_NAME    = EARTH
REF_FRAME      = TEME
TIME_SYSTEM    = UTC
MEAN_ELEMENT_THEORY = SGP/SGP4

EPOCH          = 2025-12-17T08:06:46.724256
MEAN_MOTION    = 14.30953797
ECCENTRICITY   = .00129392
INCLINATION    = 98.5792
RA_OF_ASC_NODE = 285.9693
ARG_OF_PERICENTER = 71.3318
MEAN_ANOMALY   = 288.9268

EPHEMERIS_TYPE = 0
CLASSIFICATION_TYPE = U
NORAD_CAT_ID   = 27422
ELEMENT_SET_NO = 999
REV_AT_EPOCH   = 23224
BSTAR          = .1110283E-3
MEAN_MOTION_DOT = .248E-5
MEAN_MOTION_DDOT = 0

CCSDS_OMM_VERS = 2.0
CREATION_DATE  = 
ORIGINATOR     = 

OBJECT_NAME    = AQUA
OBJECT_ID      = 2002-022A
CENTER_NAME    = EARTH
REF_FRAME      = TEME
TIME_SYSTEM    = UTC
MEAN_ELEMENT_THEORY = SGP/SGP4

EPOCH          = 2025-12-17T08:31:26.563584
MEAN_MOTION    = 14.61820032
ECCENTRICITY   = .00012648
INCLINATION    = 98.4042
RA_OF_ASC_NODE = 312.3093
ARG_OF_PERICENTER = 113.4932
MEAN_ANOMALY   = 6.6916

EPHEMERIS_TYPE = 0
CLASSIFICATION_TYPE = U
NORAD_CAT_ID   = 27424
ELEMENT_SET_NO = 999
REV_AT_EPOCH   = 25670
BSTAR          = .19120415E-3
MEAN_MOTION_DOT = .906E-5
MEAN_MOTION_DDOT = 0

CCSDS_OMM_VERS = 2.0
CREATION_DATE  = 
ORIGINATOR     = 

OBJECT_NAME    = CZ-4B R/B
OBJECT_ID      = 2002-024C
CENTER_NAME    = EARTH
REF_FRAME      = TEME
TIME_SYSTEM    = UTC
MEAN_ELEMENT_THEORY = SGP/SGP4

EPOCH          = 2025-12-17T04:10:54.812064
MEAN_MOTION    = 14.14528805
ECCENTRICITY   = .00491776
INCLINATION    = 98.8994
RA_OF_ASC_NODE = 39.9305
ARG_OF_PERICENTER = 257.0441
MEAN_ANOMALY   = 172.5866

EPHEMERIS_TYPE = 0
CLASSIFICATION_TYPE = U
NORAD_CAT_ID   = 27432
ELEMENT_SET_NO = 999
REV_AT_EPOCH   = 21757
BSTAR          = .5104132E-4
MEAN_MOTION_DOT = .54E-6
MEAN_MOTION_DDOT = 0

CCSDS_OMM_VERS = 2.0
CREATION_DATE  = 
ORIGINATOR     = 

OBJECT_NAME    = MIDORI II (ADEOS-II)
OBJECT_ID      = 2002-056A
CENTER_NAME    = EARTH
REF_FRAME      = TEME
TIME_SYSTEM    = UTC
MEAN_ELEMENT_THEORY = SGP/SGP4

EPOCH          = 2025-12-17T08:03:48.340224
MEAN_MOTION    = 14.29208918
ECCENTRICITY   = .00004269
INCLINATION    = 98.7642
RA_OF_ASC_NODE = 304.3165
ARG_OF_PERICENTER = 152.9290
MEAN_ANOMALY   = 207.1914

EPHEMERIS_TYPE = 0
CLASSIFICATION_TYPE = U
NORAD_CAT_ID   = 27597
ELEMENT_SET_NO = 999
REV_AT_EPOCH   = 19853
BSTAR          = .10798211E-3
MEAN_MOTION_DOT = .229E-5
MEAN_MOTION_DDOT = 0

CCSDS_OMM_VERS = 2.0
CREATION_DATE  = 
ORIGINATOR     = 

OBJECT_NAME    = H-2A R/B
OBJECT_ID      = 2002-056E
CENTER_NAME    = EARTH
REF_FRAME      = TEME
TIME_SYSTEM    = UTC
MEAN_ELEMENT_THEORY = SGP/SGP4

EPOCH          = 2025-12-17T08:48:33.724800
MEAN_MOTION    = 14.33680146
ECCENTRICITY   = .00712675
INCLINATION    = 98.3071
RA_OF_ASC_NODE = 309.9396
ARG_OF_PERICENTER = 47.5647
MEAN_ANOMALY   = 67.2124

EPHEMERIS_TYPE = 0
CLASSIFICATION_TYPE = U
NORAD_CAT_ID   = 27601
ELEMENT_SET_NO = 999
REV_AT_EPOCH   = 20231
BSTAR          = .12644445E-3
MEAN_MOTION_DOT = .32E-5
MEAN_MOTION_DDOT = 0

CCSDS_OMM_VERS = 2.0
CREATION_DATE  = 
ORIGINATOR     = 

OBJECT_NAME    = CZ-4B R/B
OBJECT_ID      = 2003-049C
CENTER_NAME    = EARTH
REF_FRAME      = TEME
TIME_SYSTEM    = UTC
MEAN_ELEMENT_THEORY = SGP/SGP4

EPOCH          = 2025-12-17T04:52:55.131168
MEAN_MOTION    = 14.54913473
ECCENTRICITY   = .00491873
INCLINATION    = 98.6790
RA_OF_ASC_NODE = 337.9360
ARG_OF_PERICENTER = 122.6844
MEAN_ANOMALY   = 237.9110

EPHEMERIS_TYPE = 0
CLASSIFICATION_TYPE = U
NORAD_CAT_ID   = 28059
ELEMENT_SET_NO = 999
REV_AT_EPOCH   = 17460
BSTAR          = .84795047E-4
MEAN_MOTION_DOT = .319E-5
MEAN_MOTION_DDOT = 0

CCSDS_OMM_VERS = 2.0
CREATION_DATE  = 
ORIGINATOR     = 

OBJECT_NAME    = CZ-2C R/B
OBJECT_ID      = 2004-012C
CENTER_NAME    = EARTH
REF_FRAME      = TEME
TIME_SYSTEM    = UTC
MEAN_ELEMENT_THEORY = SGP/SGP4

EPOCH          = 2025-12-17T07:21:06.573312
MEAN_MOTION    = 15.55858764
ECCENTRICITY   = .00164426
INCLINATION    = 97.7422
RA_OF_ASC_NODE = 44.3061
ARG_OF_PERICENTER = 252.3952
MEAN_ANOMALY   = 107.5506

EPHEMERIS_TYPE = 0
CLASSIFICATION_TYPE = U
NORAD_CAT_ID   = 28222
ELEMENT_SET_NO = 999
REV_AT_EPOCH   = 19143
BSTAR          = .46662521E-3
MEAN_MOTION_DOT = .32448E-3
MEAN_MOTION_DDOT = 0

CCSDS_OMM_VERS = 2.0
CREATION_DATE  = 
ORIGINATOR     = 

OBJECT_NAME    = SL-16 R/B
OBJECT_ID      = 2004-021B
CENTER_NAME    = EARTH
REF_FRAME      = TEME
TIME_SYSTEM    = UTC
MEAN_ELEMENT_THEORY = SGP/SGP4

EPOCH          = 2025-12-17T06:55:35.858208
MEAN_MOTION    = 14.14579139
ECCENTRICITY   = .00050517
INCLINATION    = 71.0011
RA_OF_ASC_NODE = 45.4196
ARG_OF_PERICENTER = 192.7999
MEAN_ANOMALY   = 167.2996

EPHEMERIS_TYPE = 0
CLASSIFICATION_TYPE = U
NORAD_CAT_ID   = 28353
ELEMENT_SET_NO = 999
REV_AT_EPOCH   = 11118
BSTAR          = -.69336577E-4
MEAN_MOTION_DOT = -.181E-5
MEAN_MOTION_DDOT = 0

CCSDS_OMM_VERS = 2.0
CREATION_DATE  = 
ORIGINATOR     = 

OBJECT_NAME    = CZ-4B R/B
OBJECT_ID      = 2004-035C
CENTER_NAME    = EARTH
REF_FRAME      = TEME
TIME_SYSTEM    = UTC
MEAN_ELEMENT_THEORY = SGP/SGP4

EPOCH          = 2025-12-17T01:57:42.774048
MEAN_MOTION    = 15.27443434
ECCENTRICITY   = .00315315
INCLINATION    = 97.3606
RA_OF_ASC_NODE = 21.3683
ARG_OF_PERICENTER = 261.2625
MEAN_ANOMALY   = 98.5042

EPHEMERIS_TYPE = 0
CLASSIFICATION_TYPE = U
NORAD_CAT_ID   = 28415
ELEMENT_SET_NO = 999
REV_AT_EPOCH   = 16729
BSTAR          = .25844665E-3
MEAN_MOTION_DOT = .6967E-4
MEAN_MOTION_DDOT = 0

CCSDS_OMM_VERS = 2.0
CREATION_DATE  = 
ORIGINATOR     = 

OBJECT_NAME    = CZ-2C R/B
OBJECT_ID      = 2004-046B
CENTER_NAME    = EARTH
REF_FRAME      = TEME
TIME_SYSTEM    = UTC
MEAN_ELEMENT_THEORY = SGP/SGP4

EPOCH          = 2025-12-17T07:21:10.168416
MEAN_MOTION    = 14.26943332
ECCENTRICITY   = .01403014
INCLINATION    = 98.1992
RA_OF_ASC_NODE = 266.4004
ARG_OF_PERICENTER = 38.8888
MEAN_ANOMALY   = 322.2287

EPHEMERIS_TYPE = 0
CLASSIFICATION_TYPE = U
NORAD_CAT_ID   = 28480
ELEMENT_SET_NO = 999
REV_AT_EPOCH   = 9675
BSTAR          = .81951516E-4
MEAN_MOTION_DOT = .18E-5
MEAN_MOTION_DDOT = 0

CCSDS_OMM_VERS = 2.0
CREATION_DATE  = 
ORIGINATOR     = 

OBJECT_NAME    = ARIANE 5 R/B
OBJECT_ID      = 2004-049H
CENTER_NAME    = EARTH
REF_FRAME      = TEME
TIME_SYSTEM    = UTC
MEAN_ELEMENT_THEORY = SGP/SGP4

EPOCH          = 2025-12-17T04:00:31.618368
MEAN_MOTION    = 14.85022898
ECCENTRICITY   = .00833093
INCLINATION    = 98.2523
RA_OF_ASC_NODE = 151.6071
ARG_OF_PERICENTER = 258.3863
MEAN_ANOMALY   = 100.7990

EPHEMERIS_TYPE = 0
CLASSIFICATION_TYPE = U
NORAD_CAT_ID   = 28499
ELEMENT_SET_NO = 999
REV_AT_EPOCH   = 13354
BSTAR          = .12230825E-3
MEAN_MOTION_DOT = .1044E-4
MEAN_MOTION_DDOT = 0

CCSDS_OMM_VERS = 2.0
CREATION_DATE  = 
ORIGINATOR     = 

OBJECT_NAME    = CZ-2D R/B
OBJECT_ID      = 2005-024B
CENTER_NAME    = EARTH
REF_FRAME      = TEME
TIME_SYSTEM    = UTC
MEAN_ELEMENT_THEORY = SGP/SGP4

EPOCH          = 2025-12-17T00:54:53.415936
MEAN_MOTION    = 15.53438506
ECCENTRICITY   = .00048286
INCLINATION    = 97.3630
RA_OF_ASC_NODE = 358.5988
ARG_OF_PERICENTER = 350.1633
MEAN_ANOMALY   = 9.9525

EPHEMERIS_TYPE = 0
CLASSIFICATION_TYPE = U
NORAD_CAT_ID   = 28738
ELEMENT_SET_NO = 999
REV_AT_EPOCH   = 12692
BSTAR          = .39690828E-3
MEAN_MOTION_DOT = .25096E-3
MEAN_MOTION_DDOT = 0

