IDEFIX & ARIANE 42P R/B 
1 27422U 02021B   25351.33804079  .00000248  00000+0  11103-3 0  9994
2 27422  98.5792 285.9693 0012939  71.3318 288.9268 14.30953797232242
AQUA                    
1 27424U 02022A   25351.35516856  .00000906  00000+0  19120-3 0  9990
2 27424  98.4042 312.3093 0001264 113.4932   6.6916 14.61820032256700
CZ-4B R/B               
1 27432U 02024C   25351.17424551  .00000054  00000+0  51041-4 0  9994
2 27432  98.8994  39.9305 0049177 257.0441 172.5866 14.14528805217572
MIDORI II (ADEOS-II)    
1 27597U 02056A   25351.33597616  .00000229  00000+0  10798-3 0  9999
2 27597  98.7642 304.3165 0000426 152.9290 207.1914 14.29208918198534
H-2A R/B                
1 27601U 02056E   25351.36705700  .00000320  00000+0  12644-3 0  9997
2 27601  98.3071 309.9396 0071267  47.5647  67.2124 14.33680146202317
CZ-4B R/B               
1 28059U 03049C   25351.20341587  .00000319  00000+0  84795-4 0  9995
2 28059  98.6790 337.9360 0049187 122.6844 237.9110 14.54913473174604
CZ-2C R/B               
1 28222U 04012C   25351.30632608  .00032448  00000+0  46663-3 0  9995
2 28222  97.7422  44.3061 0016442 252.3952 107.5506 15.55858764191438
SL-16 R/B               
1 28353U 04021B   25351.28860947 -.00000181  00000+0 -69337-4 0  9991
2 28353  71.0011  45.4196 0005051 192.7999 167.2996 14.14579139111185
CZ-4B R/B               
1 28415U 04035C   25351.08174507  .00006967  00000+0  25845-3 0  9994
2 28415  97.3606  21.3683 0031531 261.2625  98.5042 15.27443434167293
CZ-2C R/B               
1 28480U 04046B   25351.30636769  .00000180  00000+0  81952-4 0  9999
2 28480  98.1992 266.4004 0140301  38.8888 322.2287 14.26943332 96756
ARIANE 5 R/B            
1 28499U 04049H   25351.16703262  .00001044  00000+0  12231-3 0  9992
2 28499  98.2523 151.6071 0083309 258.3863 100.7990 14.85022898133541
CZ-2D R/B               
1 28738U 05024B   25351.03811824  .00025096  00000+0  39691-3 0  9994
2 28738  97.3630 358.5988 0004828 350.1633   9.9525 15.53438506126927
